      2.10          N: GNSS NAV DATA                        RINEX VERSION / TYPE
fic2rin                                 12/22/2018 00:19:41 PGM / RUN BY / DATE
                                                            END OF HEADER
32 18 12 21 14  0  0.0-3.093741834164e-04 1.591615728103e-11 0.000000000000e+00
    2.200000000000e+01-2.425000000000e+01 4.994136597264e-09 1.683263817094e+00
   -1.251697540283e-06 2.392777591012e-03 7.122755050659e-06 5.153728675842e+03
    4.824000000000e+05-3.352761268616e-08 1.981495834261e+00 1.117587089539e-07
    9.564125817373e-01 2.406875000000e+02-2.631285921426e+00-8.174983378014e-09
   -6.125255141463e-10 1.000000000000e+00 2.032000000000e+03 0.000000000000e+00
    2.400000000000e+00 0.000000000000e+00 4.656612873077e-10 2.200000000000e+01
    4.752060000000e+05 4.000000000000e+00
28 18 12 21 14  0  0.0 7.593100890517e-04 1.364242052659e-12 0.000000000000e+00
    1.100000000000e+01 1.010312500000e+02 4.100527946305e-09 1.759829937215e+00
    4.881992936134e-06 1.959111460019e-02 1.741573214531e-06 5.153694299698e+03
    4.824000000000e+05 2.533197402954e-07-2.111428816777e+00-2.998858690262e-07
    9.838242725728e-01 3.521875000000e+02-1.487044480343e+00-8.024619971918e-09
    2.921550265724e-10 1.000000000000e+00 2.032000000000e+03 0.000000000000e+00
    2.400000000000e+00 0.000000000000e+00-1.117587089539e-08 1.100000000000e+01
    4.752060000000e+05 4.000000000000e+00
20 18 12 21 14  0  0.0 5.202088505030e-04 4.547473508865e-13 0.000000000000e+00
    2.400000000000e+01 3.265625000000e+01 5.584875489624e-09-1.517876976892e+00
    1.756474375725e-06 4.481607349589e-03 7.599592208862e-06 5.153663976669e+03
    4.824000000000e+05-8.381903171539e-08 8.258372874836e-01 1.490116119385e-08
    9.295178349488e-01 2.203437500000e+02 2.209349511978e+00-8.481781871689e-09
    6.714565402886e-10 1.000000000000e+00 2.032000000000e+03 0.000000000000e+00
    2.400000000000e+00 0.000000000000e+00-8.381903171539e-09 2.400000000000e+01
    4.752060000000e+05 4.000000000000e+00
22 18 12 21 14  0  0.0-6.040311418474e-04-9.208633855451e-12 0.000000000000e+00
    8.900000000000e+01 2.815625000000e+01 5.799527287876e-09 1.192258748534e-01
    1.559033989906e-06 7.020671269856e-03 7.279217243195e-06 5.153616950989e+03
    4.824000000000e+05-4.842877388000e-08 8.750326550681e-01-4.097819328308e-08
    9.261982734072e-01 2.240000000000e+02-1.445068752457e+00-8.675718521357e-09
    6.418124483504e-10 1.000000000000e+00 2.032000000000e+03 0.000000000000e+00
    2.400000000000e+00 0.000000000000e+00-1.816079020500e-08 8.900000000000e+01
    4.752060000000e+05 4.000000000000e+00
25 18 12 21 14  0  0.0-6.944462656975e-04-5.456968210638e-12 0.000000000000e+00
    6.700000000000e+01 1.103750000000e+02 4.282678390745e-09-2.871357105355e+00
    5.755573511124e-06 7.853823946789e-03 2.043321728706e-06 5.153781711578e+03
    4.824000000000e+05 5.029141902924e-08-2.196794052673e+00-3.539025783539e-08
    9.721040736595e-01 3.461562500000e+02 8.468177914858e-01-8.114623720935e-09
    3.214419607765e-10 1.000000000000e+00 2.032000000000e+03 0.000000000000e+00
    2.400000000000e+00 0.000000000000e+00 5.587935447693e-09 6.700000000000e+01
    4.752060000000e+05 4.000000000000e+00
15 18 12 21 14  0  0.0-3.354065120220e-04 1.477928890381e-12 0.000000000000e+00
    6.500000000000e+01-2.884375000000e+01 5.803098865218e-09-5.831554267643e-03
   -1.376494765282e-06 1.114336610772e-02 5.926936864853e-06 5.153602159500e+03
    4.824000000000e+05-2.048909664154e-08 1.899509049674e+00 1.229345798492e-07
    9.275752070134e-01 2.449375000000e+02 7.491039221795e-01-8.781794368413e-09
   -5.653806932324e-10 1.000000000000e+00 2.032000000000e+03 0.000000000000e+00
    2.400000000000e+00 0.000000000000e+00-1.117587089539e-08 6.500000000000e+01
    4.752060000000e+05 4.000000000000e+00
23 18 12 21 14  0  0.0-2.028960734606e-04 1.136868377216e-12 0.000000000000e+00
    3.900000000000e+01-2.753125000000e+01 5.404867991589e-09-5.140998944156e-01
   -1.408159732819e-06 1.265646098182e-02 6.685033440590e-06 5.153663728714e+03
    4.824000000000e+05 1.862645149231e-09 1.971936207355e+00 1.806765794754e-07
    9.429102735748e-01 2.395312500000e+02-2.313570187816e+00-8.553570576262e-09
   -6.568130731866e-10 1.000000000000e+00 2.032000000000e+03 0.000000000000e+00
    2.400000000000e+00 0.000000000000e+00-2.002343535423e-08 3.900000000000e+01
    4.752060000000e+05 4.000000000000e+00
31 18 12 21 14  0  0.0 7.129833102226e-05-2.614797267597e-12 0.000000000000e+00
    3.700000000000e+01 1.185625000000e+02 4.050168705784e-09-2.279294289322e+00
    5.960464477539e-06 9.131488855928e-03 1.269206404686e-05 5.153814550400e+03
    4.824000000000e+05-1.154839992523e-07 3.065543035715e+00-1.080334186554e-07
    9.617686144832e-01 1.379687500000e+02-5.098379517686e-02-7.704963799812e-09
   -2.328668426958e-10 1.000000000000e+00 2.032000000000e+03 0.000000000000e+00
    2.400000000000e+00 0.000000000000e+00-1.350417733192e-08 3.700000000000e+01
    4.752060000000e+05 4.000000000000e+00
27 18 12 21 14  0  0.0-3.584055230021e-05-6.025402399246e-12 0.000000000000e+00
    9.600000000000e+01-1.230625000000e+02 4.275535236061e-09 9.024380685221e-01
   -6.422400474548e-06 6.322960718535e-03 2.538785338402e-06 5.153704893112e+03
    4.824000000000e+05-1.490116119385e-08-1.155564197339e+00 1.285225152969e-07
    9.780771608625e-01 3.397812500000e+02 4.257638829804e-01-8.326775415047e-09
   -3.696582548929e-10 1.000000000000e+00 2.032000000000e+03 0.000000000000e+00
    3.400000000000e+00 0.000000000000e+00 1.862645149231e-09 9.600000000000e+01
    4.752060000000e+05 4.000000000000e+00
30 18 12 21 14  0  0.0-2.326164394617e-05-5.911715561524e-12 0.000000000000e+00
    8.000000000000e+01 1.009375000000e+02 4.479472302287e-09-1.926988312695e+00
    5.146488547325e-06 3.584590973333e-03 1.233071088791e-05 5.153657419205e+03
    4.824000000000e+05-5.774199962616e-08 3.082661645185e+00-5.587935447693e-09
    9.426917487238e-01 1.316875000000e+02-3.002324578687e+00-7.871399303947e-09
   -2.189376910622e-10 1.000000000000e+00 2.032000000000e+03 0.000000000000e+00
    2.400000000000e+00 0.000000000000e+00 3.725290298462e-09 8.000000000000e+01
    4.752060000000e+05 4.000000000000e+00
21 18 12 21 14  0  0.0-2.834079787135e-04 6.707523425575e-12 0.000000000000e+00
    1.050000000000e+02-1.038125000000e+02 4.279106813403e-09-3.028508793479e+00
   -5.472451448441e-06 2.458055398893e-02 1.233257353306e-05 5.153576658249e+03
    4.824000000000e+05 3.520399332047e-07-1.598053044867e-01 1.061707735062e-07
    9.469038175676e-01 1.241562500000e+02-1.502026196597e+00-7.463168013761e-09
    3.246563803842e-10 1.000000000000e+00 2.032000000000e+03 0.000000000000e+00
    3.400000000000e+00 0.000000000000e+00-9.778887033463e-09 1.050000000000e+02
    4.752060000000e+05 4.000000000000e+00
18 18 12 21 14  0  0.0 7.777474820614e-06 3.979039320257e-12 0.000000000000e+00
    9.200000000000e+01-9.909375000000e+01 4.406254966777e-09-1.502311332497e+00
   -4.917383193970e-06 1.496394595597e-02 1.262687146664e-05 5.153616853714e+03
    4.824000000000e+05 2.048909664154e-07-1.515432508075e-01 3.483146429062e-07
    9.526124750133e-01 1.291562500000e+02 1.365670610188e+00-7.801753545779e-09
    2.925121843066e-10 1.000000000000e+00 2.032000000000e+03 0.000000000000e+00
    2.400000000000e+00 0.000000000000e+00-6.519258022308e-09 9.200000000000e+01
    4.752060000000e+05 4.000000000000e+00
12 18 12 21 14  0  0.0 2.827453427017e-04-2.955857780762e-12 0.000000000000e+00
    5.700000000000e+01 1.004687500000e+02 4.055526071797e-09-2.580165953446e+00
    5.276873707771e-06 7.178679457866e-03 1.907348632812e-06 5.153729745865e+03
    4.824000000000e+05 6.705522537231e-08-2.134412928992e+00-2.421438694000e-08
    9.845420035892e-01 3.555000000000e+02 1.022888597450e+00-8.026762918323e-09
    3.014411276615e-10 1.000000000000e+00 2.032000000000e+03 0.000000000000e+00
    2.400000000000e+00 0.000000000000e+00-1.257285475731e-08 5.700000000000e+01
    4.752060000000e+05 4.000000000000e+00
 9 18 12 21 14  0  0.0 4.808157682419e-04-4.092726157978e-12 0.000000000000e+00
    3.700000000000e+01-2.921875000000e+01 5.078425822534e-09 1.313389142307e+00
   -1.668930053711e-06 1.458715414628e-03 6.878748536110e-06 5.153758411407e+03
    4.824000000000e+05-1.490116119385e-08 1.975535413002e+00-5.029141902924e-08
    9.520989717495e-01 2.409062500000e+02 1.686440240880e+00-8.204627469952e-09
   -6.396695019452e-10 1.000000000000e+00 2.032000000000e+03 0.000000000000e+00
    2.400000000000e+00 0.000000000000e+00 1.396983861923e-09 3.700000000000e+01
    4.752060000000e+05 4.000000000000e+00
14 18 12 21 14  0  0.0-9.433459490538e-05 5.684341886081e-13 0.000000000000e+00
    8.700000000000e+01-2.187500000000e+01 4.901632744107e-09 6.477401205417e-01
   -1.102685928345e-06 1.000640576240e-02 7.867813110352e-06 5.153648586273e+03
    4.824000000000e+05-6.519258022308e-08 2.067080557608e+00 7.450580596924e-08
    9.602935219997e-01 2.308750000000e+02-1.948955954318e+00-8.266058600234e-09
   -7.471739799382e-10 1.000000000000e+00 2.032000000000e+03 0.000000000000e+00
    2.400000000000e+00 0.000000000000e+00-9.778887033463e-09 8.700000000000e+01
    4.752060000000e+05 4.000000000000e+00
13 18 12 21 14  0  0.0-8.088862523437e-05 1.250555214938e-12 0.000000000000e+00
    9.700000000000e+01-3.034375000000e+01 4.675194740627e-09-2.432441991144e-01
   -1.465901732445e-06 3.708953387104e-03 7.936730980873e-06 5.153661453247e+03
    4.824000000000e+05-4.470348358154e-08 2.110410691625e+00-3.725290298462e-09
    9.677657666887e-01 2.277187500000e+02 1.398018711811e+00-8.062121534008e-09
   -6.793140104410e-10 1.000000000000e+00 2.032000000000e+03 0.000000000000e+00
    2.400000000000e+00 0.000000000000e+00-1.117587089539e-08 9.700000000000e+01
    4.752060000000e+05 4.000000000000e+00
